CCSDS_OMM_VERS = 2.0
CREATION_DATE  = 
ORIGINATOR     = 

OBJECT_NAME    = STARLINK-36140
OBJECT_ID      = 2025-294E
CENTER_NAME    = EARTH
REF_FRAME      = TEME
TIME_SYSTEM    = UTC
MEAN_ELEMENT_THEORY = SGP/SGP4

EPOCH          = 2026-01-02T06:00:02.999808
MEAN_MOTION    = 15.44888975
ECCENTRICITY   = .00012012
INCLINATION    = 43.0010
RA_OF_ASC_NODE = 58.4953
ARG_OF_PERICENTER = 283.9960
MEAN_ANOMALY   = 236.9145

EPHEMERIS_TYPE = 0
CLASSIFICATION_TYPE = U
NORAD_CAT_ID   = 67034
ELEMENT_SET_NO = 999
REV_AT_EPOCH   = 339
BSTAR          = -.4825381E-1
MEAN_MOTION_DOT = -.2061887E-1
MEAN_MOTION_DDOT = 0

CCSDS_OMM_VERS = 2.0
CREATION_DATE  = 
ORIGINATOR     = 

OBJECT_NAME    = STARLINK-36085
OBJECT_ID      = 2025-294F
CENTER_NAME    = EARTH
REF_FRAME      = TEME
TIME_SYSTEM    = UTC
MEAN_ELEMENT_THEORY = SGP/SGP4

EPOCH          = 2026-01-02T06:47:02.441760
MEAN_MOTION    = 15.50574197
ECCENTRICITY   = .00013318
INCLINATION    = 43.0003
RA_OF_ASC_NODE = 58.2605
ARG_OF_PERICENTER = 255.4140
MEAN_ANOMALY   = 104.6572

EPHEMERIS_TYPE = 0
CLASSIFICATION_TYPE = U
NORAD_CAT_ID   = 67035
ELEMENT_SET_NO = 999
REV_AT_EPOCH   = 458
BSTAR          = .11062696E-2
MEAN_MOTION_DOT = .65088E-3
MEAN_MOTION_DDOT = 0

CCSDS_OMM_VERS = 2.0
CREATION_DATE  = 
ORIGINATOR     = 

OBJECT_NAME    = STARLINK-36125
OBJECT_ID      = 2025-294G
CENTER_NAME    = EARTH
REF_FRAME      = TEME
TIME_SYSTEM    = UTC
MEAN_ELEMENT_THEORY = SGP/SGP4

EPOCH          = 2026-01-02T05:14:46.644288
MEAN_MOTION    = 15.50648767
ECCENTRICITY   = .00014645
INCLINATION    = 42.9999
RA_OF_ASC_NODE = 58.6396
ARG_OF_PERICENTER = 242.6774
MEAN_ANOMALY   = 117.3938

EPHEMERIS_TYPE = 0
CLASSIFICATION_TYPE = U
NORAD_CAT_ID   = 67036
ELEMENT_SET_NO = 999
REV_AT_EPOCH   = 457
BSTAR          = .23707571E-2
MEAN_MOTION_DOT = .141635E-2
MEAN_MOTION_DDOT = 0

CCSDS_OMM_VERS = 2.0
CREATION_DATE  = 
ORIGINATOR     = 

OBJECT_NAME    = STARLINK-35732
OBJECT_ID      = 2025-294H
CENTER_NAME    = EARTH
REF_FRAME      = TEME
TIME_SYSTEM    = UTC
MEAN_ELEMENT_THEORY = SGP/SGP4

EPOCH          = 2026-01-02T06:46:32.877408
MEAN_MOTION    = 15.50610352
ECCENTRICITY   = .00013115
INCLINATION    = 43.0004
RA_OF_ASC_NODE = 58.2578
ARG_OF_PERICENTER = 285.1864
MEAN_ANOMALY   = 74.8852

EPHEMERIS_TYPE = 0
CLASSIFICATION_TYPE = U
NORAD_CAT_ID   = 67037
ELEMENT_SET_NO = 999
REV_AT_EPOCH   = 458
BSTAR          = .1162007E-2
MEAN_MOTION_DOT = .68503E-3
MEAN_MOTION_DDOT = 0

CCSDS_OMM_VERS = 2.0
CREATION_DATE  = 
ORIGINATOR     = 

OBJECT_NAME    = STARLINK-35775
OBJECT_ID      = 2025-294J
CENTER_NAME    = EARTH
REF_FRAME      = TEME
TIME_SYSTEM    = UTC
MEAN_ELEMENT_THEORY = SGP/SGP4

EPOCH          = 2026-01-02T06:46:03.361440
MEAN_MOTION    = 15.50584173
ECCENTRICITY   = .00009075
INCLINATION    = 43.0000
RA_OF_ASC_NODE = 58.2537
ARG_OF_PERICENTER = 263.9121
MEAN_ANOMALY   = 96.1636

EPHEMERIS_TYPE = 0
CLASSIFICATION_TYPE = U
NORAD_CAT_ID   = 67038
ELEMENT_SET_NO = 999
REV_AT_EPOCH   = 459
BSTAR          = .92510958E-3
MEAN_MOTION_DOT = .54317E-3
MEAN_MOTION_DDOT = 0

CCSDS_OMM_VERS = 2.0
CREATION_DATE  = 
ORIGINATOR     = 

OBJECT_NAME    = STARLINK-35705
OBJECT_ID      = 2025-294K
CENTER_NAME    = EARTH
REF_FRAME      = TEME
TIME_SYSTEM    = UTC
MEAN_ELEMENT_THEORY = SGP/SGP4

EPOCH          = 2026-01-02T06:45:04.118688
MEAN_MOTION    = 15.50617216
ECCENTRICITY   = .00010977
INCLINATION    = 43.0003
RA_OF_ASC_NODE = 58.2498
ARG_OF_PERICENTER = 268.8068
MEAN_ANOMALY   = 91.2666

EPHEMERIS_TYPE = 0
CLASSIFICATION_TYPE = U
NORAD_CAT_ID   = 67039
ELEMENT_SET_NO = 999
REV_AT_EPOCH   = 458
BSTAR          = .21448176E-2
MEAN_MOTION_DOT = .127731E-2
MEAN_MOTION_DDOT = 0

CCSDS_OMM_VERS = 2.0
CREATION_DATE  = 
ORIGINATOR     = 

OBJECT_NAME    = STARLINK-35786
OBJECT_ID      = 2025-294L
CENTER_NAME    = EARTH
REF_FRAME      = TEME
TIME_SYSTEM    = UTC
MEAN_ELEMENT_THEORY = SGP/SGP4

EPOCH          = 2026-01-02T06:00:02.999808
MEAN_MOTION    = 15.46839076
ECCENTRICITY   = .00008534
INCLINATION    = 43.0008
RA_OF_ASC_NODE = 58.4521
ARG_OF_PERICENTER = 270.4683
MEAN_ANOMALY   = 267.3397

EPHEMERIS_TYPE = 0
CLASSIFICATION_TYPE = U
NORAD_CAT_ID   = 67040
ELEMENT_SET_NO = 999
REV_AT_EPOCH   = 339
BSTAR          = -.45696866E-1
MEAN_MOTION_DOT = -.2086205E-1
MEAN_MOTION_DDOT = 0

CCSDS_OMM_VERS = 2.0
CREATION_DATE  = 
ORIGINATOR     = 

OBJECT_NAME    = STARLINK-35765
OBJECT_ID      = 2025-294M
CENTER_NAME    = EARTH
REF_FRAME      = TEME
TIME_SYSTEM    = UTC
MEAN_ELEMENT_THEORY = SGP/SGP4

EPOCH          = 2026-01-02T06:44:34.160352
MEAN_MOTION    = 15.50640390
ECCENTRICITY   = .00013223
INCLINATION    = 43.0002
RA_OF_ASC_NODE = 58.2464
ARG_OF_PERICENTER = 264.6334
MEAN_ANOMALY   = 95.4376

EPHEMERIS_TYPE = 0
CLASSIFICATION_TYPE = U
NORAD_CAT_ID   = 67041
ELEMENT_SET_NO = 999
REV_AT_EPOCH   = 458
BSTAR          = .25641074E-2
MEAN_MOTION_DOT = .153401E-2
MEAN_MOTION_DDOT = 0

CCSDS_OMM_VERS = 2.0
CREATION_DATE  = 
ORIGINATOR     = 

OBJECT_NAME    = STARLINK-35773
OBJECT_ID      = 2025-294N
CENTER_NAME    = EARTH
REF_FRAME      = TEME
TIME_SYSTEM    = UTC
MEAN_ELEMENT_THEORY = SGP/SGP4

EPOCH          = 2026-01-02T06:44:04.792128
MEAN_MOTION    = 15.50610840
ECCENTRICITY   = .00011557
INCLINATION    = 43.0002
RA_OF_ASC_NODE = 58.2444
ARG_OF_PERICENTER = 275.1510
MEAN_ANOMALY   = 84.9219

EPHEMERIS_TYPE = 0
CLASSIFICATION_TYPE = U
NORAD_CAT_ID   = 67042
ELEMENT_SET_NO = 999
REV_AT_EPOCH   = 458
BSTAR          = .18525972E-2
MEAN_MOTION_DOT = .110005E-2
MEAN_MOTION_DDOT = 0

CCSDS_OMM_VERS = 2.0
CREATION_DATE  = 
ORIGINATOR     = 

OBJECT_NAME    = STARLINK-35901
OBJECT_ID      = 2025-294P
CENTER_NAME    = EARTH
REF_FRAME      = TEME
TIME_SYSTEM    = UTC
MEAN_ELEMENT_THEORY = SGP/SGP4

EPOCH          = 2026-01-02T06:43:34.939200
MEAN_MOTION    = 15.50628923
ECCENTRICITY   = .00012096
INCLINATION    = 43.0001
RA_OF_ASC_NODE = 58.2412
ARG_OF_PERICENTER = 270.3806
MEAN_ANOMALY   = 89.6916

EPHEMERIS_TYPE = 0
CLASSIFICATION_TYPE = U
NORAD_CAT_ID   = 67043
ELEMENT_SET_NO = 999
REV_AT_EPOCH   = 458
BSTAR          = .20995101E-2
MEAN_MOTION_DOT = .125034E-2
MEAN_MOTION_DDOT = 0

CCSDS_OMM_VERS = 2.0
CREATION_DATE  = 
ORIGINATOR     = 

OBJECT_NAME    = STARLINK-35884
OBJECT_ID      = 2025-294Q
CENTER_NAME    = EARTH
REF_FRAME      = TEME
TIME_SYSTEM    = UTC
MEAN_ELEMENT_THEORY = SGP/SGP4

EPOCH          = 2026-01-02T06:00:02.999808
MEAN_MOTION    = 15.40659897
ECCENTRICITY   = .00017304
INCLINATION    = 43.0004
RA_OF_ASC_NODE = 58.5354
ARG_OF_PERICENTER = 278.9800
MEAN_ANOMALY   = 224.0656

EPHEMERIS_TYPE = 0
CLASSIFICATION_TYPE = U
NORAD_CAT_ID   = 67044
ELEMENT_SET_NO = 999
REV_AT_EPOCH   = 359
BSTAR          = .97280046E-3
MEAN_MOTION_DOT = .40495E-3
MEAN_MOTION_DDOT = 0

CCSDS_OMM_VERS = 2.0
CREATION_DATE  = 
ORIGINATOR     = 

OBJECT_NAME    = STARLINK-35891
OBJECT_ID      = 2025-294R
CENTER_NAME    = EARTH
REF_FRAME      = TEME
TIME_SYSTEM    = UTC
MEAN_ELEMENT_THEORY = SGP/SGP4

EPOCH          = 2026-01-02T06:42:35.513280
MEAN_MOTION    = 15.50614563
ECCENTRICITY   = .00013734
INCLINATION    = 43.0000
RA_OF_ASC_NODE = 58.2348
ARG_OF_PERICENTER = 261.0090
MEAN_ANOMALY   = 99.0615

EPHEMERIS_TYPE = 0
CLASSIFICATION_TYPE = U
NORAD_CAT_ID   = 67045
ELEMENT_SET_NO = 999
REV_AT_EPOCH   = 458
BSTAR          = .18252476E-2
MEAN_MOTION_DOT = .108368E-2
MEAN_MOTION_DDOT = 0

