STARLINK-36140          
1 67034U 25294E   26002.25003472 -.02061887  00000+0 -48254-1 0  9992
2 67034  43.0010  58.4953 0001201 283.9960 236.9145 15.44888975  3399
STARLINK-36085          
1 67035U 25294F   26002.28266715  .00065088  00000+0  11063-2 0  9999
2 67035  43.0003  58.2605 0001331 255.4140 104.6572 15.50574197  4584
STARLINK-36125          
1 67036U 25294G   26002.21859542  .00141635  00000+0  23708-2 0  9991
2 67036  42.9999  58.6396 0001464 242.6774 117.3938 15.50648767  4577
STARLINK-35732          
1 67037U 25294H   26002.28232497  .00068503  00000+0  11620-2 0  9995
2 67037  43.0004  58.2578 0001311 285.1864  74.8852 15.50610352  4580
STARLINK-35775          
1 67038U 25294J   26002.28198335  .00054317  00000+0  92511-3 0  9995
2 67038  43.0000  58.2537 0000907 263.9121  96.1636 15.50584173  4591
STARLINK-35705          
1 67039U 25294K   26002.28129767  .00127731  00000+0  21448-2 0  9990
2 67039  43.0003  58.2498 0001097 268.8068  91.2666 15.50617216  4589
STARLINK-35786          
1 67040U 25294L   26002.25003472 -.02086205  00000+0 -45697-1 0  9998
2 67040  43.0008  58.4521 0000853 270.4683 267.3397 15.46839076  3396
STARLINK-35765          
1 67041U 25294M   26002.28095093  .00153401  00000+0  25641-2 0  9999
2 67041  43.0002  58.2464 0001322 264.6334  95.4376 15.50640390  4588
STARLINK-35773          
1 67042U 25294N   26002.28061102  .00110005  00000+0  18526-2 0  9991
2 67042  43.0002  58.2444 0001155 275.1510  84.9219 15.50610840  4580
STARLINK-35901          
1 67043U 25294P   26002.28026550  .00125034  00000+0  20995-2 0  9991
2 67043  43.0001  58.2412 0001209 270.3806  89.6916 15.50628923  4587
STARLINK-35884          
1 67044U 25294Q   26002.25003472  .00040495  00000+0  97280-3 0  9996
2 67044  43.0004  58.5354 0001730 278.9800 224.0656 15.40659897  3595
STARLINK-35891          
1 67045U 25294R   26002.27957770  .00108368  00000+0  18252-2 0  9993
2 67045  43.0000  58.2348 0001373 261.0090  99.0615 15.50614563  4586
